[{"OBJECT_NAME":"TEVEL2-6","OBJECT_ID":"2025-052F","EPOCH":"2026-03-15T06:30:02.786976","MEAN_MOTION":15.31018714,"ECCENTRICITY":0.00048495,"INCLINATION":97.4018,"RA_OF_ASC_NODE":330.6446,"ARG_OF_PERICENTER":86.6586,"MEAN_ANOMALY":273.521,"EPHEMERIS_TYPE":0,"CLASSIFICATION_TYPE":"U","NORAD_CAT_ID":63215,"ELEMENT_SET_NO":999,"REV_AT_EPOCH":5572,"BSTAR":0.00073422745,"MEAN_MOTION_DOT":0.00021973,"MEAN_MOTION_DDOT":0},{"OBJECT_NAME":"TEVEL2-1","OBJECT_ID":"2025-052H","EPOCH":"2026-03-15T06:29:44.167776","MEAN_MOTION":15.30592341,"ECCENTRICITY":0.00049633,"INCLINATION":97.3993,"RA_OF_ASC_NODE":330.3708,"ARG_OF_PERICENTER":94.8167,"MEAN_ANOMALY":265.364,"EPHEMERIS_TYPE":0,"CLASSIFICATION_TYPE":"U","NORAD_CAT_ID":63217,"ELEMENT_SET_NO":999,"REV_AT_EPOCH":5571,"BSTAR":0.00072443373,"MEAN_MOTION_DOT":0.00021393,"MEAN_MOTION_DDOT":0},{"OBJECT_NAME":"TEVEL2-3","OBJECT_ID":"2025-052J","EPOCH":"2026-03-15T06:26:03.552288","MEAN_MOTION":15.30628704,"ECCENTRICITY":0.00049501,"INCLINATION":97.3998,"RA_OF_ASC_NODE":330.3805,"ARG_OF_PERICENTER":95.7764,"MEAN_ANOMALY":264.4042,"EPHEMERIS_TYPE":0,"CLASSIFICATION_TYPE":"U","NORAD_CAT_ID":63218,"ELEMENT_SET_NO":999,"REV_AT_EPOCH":5571,"BSTAR":0.00072418384,"MEAN_MOTION_DOT":0.0002141,"MEAN_MOTION_DDOT":0},{"OBJECT_NAME":"TEVEL2-2","OBJECT_ID":"2025-052K","EPOCH":"2026-03-15T04:56:31.886304","MEAN_MOTION":15.30592748,"ECCENTRICITY":0.00049081,"INCLINATION":97.3992,"RA_OF_ASC_NODE":330.3072,"ARG_OF_PERICENTER":94.9965,"MEAN_ANOMALY":265.1836,"EPHEMERIS_TYPE":0,"CLASSIFICATION_TYPE":"U","NORAD_CAT_ID":63219,"ELEMENT_SET_NO":999,"REV_AT_EPOCH":5570,"BSTAR":0.00072501126,"MEAN_MOTION_DOT":0.0002141,"MEAN_MOTION_DDOT":0},{"OBJECT_NAME":"TEVEL2-9","OBJECT_ID":"2025-052AD","EPOCH":"2026-03-15T06:23:00.837024","MEAN_MOTION":15.28864884,"ECCENTRICITY":0.00083609,"INCLINATION":97.4057,"RA_OF_ASC_NODE":329.927,"ARG_OF_PERICENTER":109.3936,"MEAN_ANOMALY":250.8209,"EPHEMERIS_TYPE":0,"CLASSIFICATION_TYPE":"U","NORAD_CAT_ID":63237,"ELEMENT_SET_NO":999,"REV_AT_EPOCH":5566,"BSTAR":0.00071928494,"MEAN_MOTION_DOT":0.0002015,"MEAN_MOTION_DDOT":0},{"OBJECT_NAME":"TEVEL2-7","OBJECT_ID":"2025-052AE","EPOCH":"2026-03-15T05:24:54.057024","MEAN_MOTION":15.28640447,"ECCENTRICITY":0.00085451,"INCLINATION":97.4059,"RA_OF_ASC_NODE":329.8375,"ARG_OF_PERICENTER":108.9982,"MEAN_ANOMALY":251.2184,"EPHEMERIS_TYPE":0,"CLASSIFICATION_TYPE":"U","NORAD_CAT_ID":63238,"ELEMENT_SET_NO":999,"REV_AT_EPOCH":5565,"BSTAR":0.0007240001,"MEAN_MOTION_DOT":0.00020145,"MEAN_MOTION_DDOT":0},{"OBJECT_NAME":"TEVEL2-8","OBJECT_ID":"2025-052AF","EPOCH":"2026-03-15T05:35:07.520352","MEAN_MOTION":15.28620496,"ECCENTRICITY":0.0008498,"INCLINATION":97.4063,"RA_OF_ASC_NODE":329.8248,"ARG_OF_PERICENTER":109.9098,"MEAN_ANOMALY":250.3058,"EPHEMERIS_TYPE":0,"CLASSIFICATION_TYPE":"U","NORAD_CAT_ID":63239,"ELEMENT_SET_NO":999,"REV_AT_EPOCH":5565,"BSTAR":0.00068613489,"MEAN_MOTION_DOT":0.00019073,"MEAN_MOTION_DDOT":0},{"OBJECT_NAME":"HADES-ICM","OBJECT_ID":"2025-052BN","EPOCH":"2026-03-15T05:19:51.653568","MEAN_MOTION":15.58682409,"ECCENTRICITY":0.00091133,"INCLINATION":97.3927,"RA_OF_ASC_NODE":334.8766,"ARG_OF_PERICENTER":100.0841,"MEAN_ANOMALY":260.1444,"EPHEMERIS_TYPE":0,"CLASSIFICATION_TYPE":"U","NORAD_CAT_ID":63492,"ELEMENT_SET_NO":999,"REV_AT_EPOCH":5600,"BSTAR":0.0021513653,"MEAN_MOTION_DOT":0.0016869,"MEAN_MOTION_DDOT":0}]
